{
    "links": {
        "self": "http://www.neowsapp.com/rest/v1/neo/54016368?api_key=iIulBulltgU6a56xZRHN4H3l9WmuAYTsLGpBGhQ2"
    },
    "id": "54016368",
    "neo_reference_id": "54016368",
    "name": "(2020 FD5)",
    "designation": "2020 FD5",
    "nasa_jpl_url": "http://ssd.jpl.nasa.gov/sbdb.cgi?sstr=54016368",
    "absolute_magnitude_h": 24.61,
    "estimated_diameter": {
        "kilometers": {
            "estimated_diameter_min": 0.0318093633,
            "estimated_diameter_max": 0.0711278987
        },
        "meters": {
            "estimated_diameter_min": 31.8093633221,
            "estimated_diameter_max": 71.1278987093
        },
        "miles": {
            "estimated_diameter_min": 0.0197654159,
            "estimated_diameter_max": 0.0441968135
        },
        "feet": {
            "estimated_diameter_min": 104.3614315618,
            "estimated_diameter_max": 233.3592552014
        }
    },
    "is_potentially_hazardous_asteroid": false,
    "close_approach_data": [
        {
            "close_approach_date": "2020-03-20",
            "close_approach_date_full": "2020-Mar-20 05:33",
            "epoch_date_close_approach": 1584682380000,
            "relative_velocity": {
                "kilometers_per_second": "24.7301488221",
                "kilometers_per_hour": "89028.535759398",
                "miles_per_hour": "55318.8699000548"
            },
            "miss_distance": {
                "astronomical": "0.0235501339",
                "lunar": "9.1610020871",
                "kilometers": "3523049.869654793",
                "miles": "2189121.6780824234"
            },
            "orbiting_body": "Earth"
        },
        {
            "close_approach_date": "2073-06-20",
            "close_approach_date_full": "2073-Jun-20 04:05",
            "epoch_date_close_approach": 3265157100000,
            "relative_velocity": {
                "kilometers_per_second": "28.8201308545",
                "kilometers_per_hour": "103752.4710760369",
                "miles_per_hour": "64467.7507083297"
            },
            "miss_distance": {
                "astronomical": "0.0516136661",
                "lunar": "20.0777161129",
                "kilometers": "7721294.511451207",
                "miles": "4797789.9329403766"
            },
            "orbiting_body": "Venus"
        }
    ],
    "orbital_data": {
        "orbit_id": "1",
        "orbit_determination_date": "2020-03-25 16:42:18",
        "first_observation_date": "2020-03-24",
        "last_observation_date": "2020-03-25",
        "data_arc_in_days": 1,
        "observations_used": 47,
        "orbit_uncertainty": "9",
        "minimum_orbit_intersection": ".0229048",
        "jupiter_tisserand_invariant": "4.027",
        "epoch_osculation": "2458933.5",
        "eccentricity": ".7400551844481682",
        "semi_major_axis": "1.577230919855033",
        "inclination": "10.63770495898406",
        "ascending_node_longitude": "6.460503883217361",
        "orbital_period": "723.5046894659791",
        "perihelion_distance": ".4099930005443626",
        "perihelion_argument": "60.18932746256825",
        "aphelion_distance": "2.744468839165704",
        "perihelion_time": "2458881.567576240617",
        "mean_anomaly": "25.8404303739582",
        "mean_motion": ".4975779773669705",
        "equinox": "J2000",
        "orbit_class": {
            "orbit_class_type": "APO",
            "orbit_class_description": "Near-Earth asteroid orbits which cross the Earth’s orbit similar to that of 1862 Apollo",
            "orbit_class_range": "a (semi-major axis) > 1.0 AU; q (perihelion) < 1.017 AU"
        }
    },
    "is_sentry_object": false
}